[{"OBJECT_NAME":"STARLINK-31720","OBJECT_ID":"2024-071P","EPOCH":"2026-03-09T02:58:07.137408","MEAN_MOTION":15.27582537,"ECCENTRICITY":0.00033943,"INCLINATION":43.0029,"RA_OF_ASC_NODE":343.4073,"ARG_OF_PERICENTER":263.6483,"MEAN_ANOMALY":96.3983,"EPHEMERIS_TYPE":0,"CLASSIFICATION_TYPE":"U","NORAD_CAT_ID":59497,"ELEMENT_SET_NO":999,"REV_AT_EPOCH":10811,"BSTAR":4.4134016e-5,"MEAN_MOTION_DOT":9.52e-6,"MEAN_MOTION_DDOT":0},{"OBJECT_NAME":"FLOCK 4G-25","OBJECT_ID":"2025-009AP","EPOCH":"2026-03-09T17:53:50.680608","MEAN_MOTION":15.27424196,"ECCENTRICITY":8.276e-5,"INCLINATION":97.4049,"RA_OF_ASC_NODE":151.4141,"ARG_OF_PERICENTER":316.3151,"MEAN_ANOMALY":43.8023,"EPHEMERIS_TYPE":0,"CLASSIFICATION_TYPE":"U","NORAD_CAT_ID":62646,"ELEMENT_SET_NO":999,"REV_AT_EPOCH":6373,"BSTAR":0.00038902475,"MEAN_MOTION_DOT":0.00010373,"MEAN_MOTION_DDOT":0}]
